OBJECT_NAME,OBJECT_ID,EPOCH,MEAN_MOTION,ECCENTRICITY,INCLINATION,RA_OF_ASC_NODE,ARG_OF_PERICENTER,MEAN_ANOMALY,EPHEMERIS_TYPE,CLASSIFICATION_TYPE,NORAD_CAT_ID,ELEMENT_SET_NO,REV_AT_EPOCH,BSTAR,MEAN_MOTION_DOT,MEAN_MOTION_DDOT
STARLINK-5703,2023-020AA,2026-06-14T07:24:58.300704,15.27579219,.00016132,43.0013,179.1906,275.6829,84.3838,0,U,55593,999,18369,.39510467E-4,.825E-5,0
STARLINK-5750,2023-020AB,2026-06-12T08:31:22.266912,15.27570941,.00016316,43.0030,190.3256,284.6560,75.4111,0,U,55594,999,18339,-.21048668E-4,-.841E-5,0
STARLINK-5729,2023-020AD,2026-06-14T07:50:52.466496,15.27577524,.00010972,43.0002,179.3208,297.4530,62.6210,0,U,55596,999,18369,.39487331E-4,.825E-5,0
STARLINK-5743,2023-020AE,2026-06-13T17:56:26.240352,15.27576433,.00012288,43.0017,171.4569,270.0242,90.0469,0,U,55597,999,18373,.13574037E-4,.111E-5,0
STARLINK-5756,2023-020AF,2026-06-14T07:19:37.415424,15.27589275,.00011793,42.9987,168.7277,264.4599,95.6118,0,U,55598,999,18381,.2148107E-3,.5655E-4,0
STARLINK-5761,2023-020AG,2026-06-14T07:25:11.384256,15.27587443,.00007314,43.0039,168.7627,272.2242,87.8526,0,U,55599,999,18381,.69256967E-4,.1645E-4,0
STARLINK-5755,2023-020AH,2026-06-14T11:32:30.725088,15.27586626,.00015132,43.0020,167.4872,272.5657,87.5022,0,U,55600,999,18384,.37323483E-4,.765E-5,0
STARLINK-5744,2023-020AJ,2026-06-14T07:19:37.249536,15.27579149,.00023909,43.0134,180.0178,279.8599,80.1983,0,U,55601,999,18368,.19669784E-4,.278E-5,0
STARLINK-5764,2023-020AK,2026-06-13T17:23:19.987296,15.27574011,.00009299,43.0014,172.1134,271.4086,88.6659,0,U,55602,999,18372,-.3589584E-5,-.361E-5,0
STARLINK-5735,2023-020AL,2026-06-14T06:44:28.958208,15.27575470,.0001969,43.0061,168.5727,279.6881,80.3749,0,U,55603,999,18381,-.87371E-5,-.503E-5,0
STARLINK-5748,2023-020AM,2026-06-13T21:25:49.888128,15.27584420,.0000857,43.0027,156.0997,307.2472,52.8302,0,U,55604,999,18392,.58447E-4,.1347E-4,0
STARLINK-5725,2023-020AN,2026-06-14T06:55:37.288128,15.27556747,.0000705,43.0026,168.6245,269.2498,90.8273,0,U,55605,999,18381,-.77321E-4,-.2387E-4,0
STARLINK-5700,2023-020AQ,2026-06-14T07:15:56.621088,15.27574679,.0001152,43.0015,168.7301,261.5704,98.5017,0,U,55607,999,18381,-.37033E-5,-.364E-5,0
STARLINK-5726,2023-020AR,2026-06-14T07:21:29.187648,15.27585563,.00009164,43.0031,168.7557,136.0147,224.0778,0,U,55608,999,18381,.66576856E-4,.1571E-4,0
STARLINK-5719,2023-020AS,2026-06-14T07:10:24.421728,15.27571185,.0001262,42.9989,168.7024,260.7437,99.3272,0,U,55609,999,18381,-.23948E-5,-.328E-5,0
STARLINK-5722,2023-020AT,2026-06-13T17:25:10.994880,15.27575258,.00010354,43.0029,172.1320,272.0909,87.9824,0,U,55610,999,18372,-.3402497E-5,-.356E-5,0
STARLINK-5730,2023-020AU,2026-06-14T07:41:49.589376,15.27584345,.00009451,43.0020,168.8503,287.6647,72.4101,0,U,55611,999,18381,.38915268E-4,.809E-5,0
STARLINK-5734,2023-020AV,2026-06-13T17:39:59.317344,15.27575762,.00014813,43.0018,172.2198,280.9074,79.1611,0,U,55612,999,18372,.14145674E-4,.127E-5,0
STARLINK-5714,2023-020AX,2026-06-13T16:52:36.046272,15.27576661,.00011049,43.0018,157.2181,309.1578,50.9176,0,U,55614,999,18389,.7405675E-5,-.58E-6,0
STARLINK-5712,2023-020AY,2026-06-13T17:54:34.744608,15.27579218,.00020263,43.0074,171.4359,279.6325,80.4298,0,U,55615,999,18373,.13697347E-4,.114E-5,0
STARLINK-5710,2023-020AZ,2026-06-14T06:42:36.950112,15.27590598,.0002089,43.0080,168.5584,279.5049,80.5566,0,U,55616,999,18381,.67397E-4,.1593E-4,0
STARLINK-5721,2023-020BA,2026-06-14T06:33:22.853088,15.27577395,.0001638,43.0027,168.5040,282.5219,77.5449,0,U,55617,999,18381,.11189E-4,.46E-6,0
STARLINK-5717,2023-020BB,2026-06-13T07:15:50.376096,15.27579767,.0001897,43.0101,174.1278,275.8713,84.1922,0,U,55618,999,18366,.25487E-4,.439E-5,0
STARLINK-5720,2023-020BC,2026-06-14T06:53:44.519712,15.27573411,.0001375,43.0042,168.6093,273.3356,86.7338,0,U,55619,999,18380,.11037E-4,.41E-6,0
STARLINK-5718,2023-020BD,2026-06-14T06:59:17.200320,15.27576381,.00014,43.0029,168.6383,265.6746,94.3945,0,U,55620,999,18381,.58446E-5,-.101E-5,0
STARLINK-5709,2023-020BE,2026-06-14T11:19:33.752352,15.27592757,.00019161,43.0037,167.4186,282.6937,77.3700,0,U,55621,999,18384,.65538983E-4,.1542E-4,0
STARLINK-5702,2023-020BF,2026-06-14T07:04:50.846016,15.27586158,.0000875,43.0012,168.6675,265.4324,94.6428,0,U,55622,999,18381,.73623E-5,-.59E-6,0
STARLINK-5698,2023-020BG,2026-06-13T17:01:07.955904,15.27574374,.00013817,43.0012,172.0082,265.6493,94.4201,0,U,55623,999,714,.70250146E-4,.1671E-4,0
STARLINK-5484,2023-021A,2026-06-14T13:00:30.470976,14.98316007,.00028622,69.9992,320.3418,268.3278,91.7553,0,U,55628,999,18280,.28849679E-3,.335E-4,0
STARLINK-5497,2023-021B,2026-06-14T13:06:29.473344,14.98330971,.00027097,69.9994,320.3572,263.5623,96.5228,0,U,55629,999,18280,.10086982E-4,.27E-6,0
STARLINK-5303,2023-021C,2026-06-14T12:54:28.186272,14.98328779,.00026429,69.9996,320.3263,269.4189,90.6667,0,U,55630,999,18280,.11521002E-4,.45E-6,0
STARLINK-5558,2023-021D,2026-06-14T13:54:31.699584,14.98335839,.0002968,70.0000,320.0688,268.0502,92.0317,0,U,55631,999,18281,.10135401E-3,.1117E-4,0
STARLINK-5546,2023-021E,2026-06-14T14:18:34.786944,14.98331574,.00030589,69.9995,320.1270,270.1788,89.9021,0,U,55632,999,18281,.50712844E-4,.512E-5,0
STARLINK-5498,2023-021F,2026-06-14T14:12:34.162848,14.98330924,.00033423,69.9993,320.1129,269.5596,90.5180,0,U,55633,999,18281,.15150818E-4,.88E-6,0
STARLINK-5500,2023-021G,2026-06-14T14:18:49.383360,14.98341009,.00029808,69.9994,320.1284,274.8232,85.2586,0,U,55634,999,18280,.13472876E-3,.1515E-4,0
STARLINK-5495,2023-021H,2026-06-14T15:24:20.411424,14.98329924,.00031357,69.9989,300.0162,269.7238,90.3562,0,U,55635,999,18331,.18324268E-4,.126E-5,0
STARLINK-5218,2023-021J,2026-06-14T14:00:33.051168,14.98337832,.00030034,69.9999,320.0837,267.0302,93.0513,0,U,55636,999,18281,.8355491E-4,.904E-5,0
STARLINK-5062,2023-021K,2026-06-14T14:12:14.881824,14.98329512,.0003202,69.9994,300.2407,268.5626,91.5166,0,U,55637,999,18330,.42654884E-4,.416E-5,0
STARLINK-5507,2023-021L,2026-06-14T14:06:33.683904,14.98336417,.00030785,69.9997,320.0984,270.5224,89.5582,0,U,55638,999,18281,-.22810697E-4,-.365E-5,0
STARLINK-5508,2023-021M,2026-06-14T15:18:34.111584,14.98331209,.00030972,69.9994,299.9993,269.1842,90.8962,0,U,55639,999,18331,-.17955142E-4,-.307E-5,0
STARLINK-5069,2023-021N,2026-06-14T15:12:19.207296,14.98329969,.00025477,69.9996,299.9830,268.9079,91.1788,0,U,55640,999,18331,-.21521682E-4,-.35E-5,0
STARLINK-5065,2023-021P,2026-06-14T14:18:15.408288,14.98330701,.00034431,69.9994,300.2529,267.3649,92.7116,0,U,55641,999,18330,.11335188E-4,.42E-6,0
STARLINK-5483,2023-021R,2026-06-14T12:54:08.730720,14.98330965,.00031558,69.9996,300.4478,269.8679,90.2119,0,U,55643,999,18329,-.20241574E-4,-.335E-5,0
STARLINK-5502,2023-021S,2026-06-14T15:36:21.742560,14.98338490,.00028827,69.9991,300.0427,258.2381,101.8455,0,U,55644,999,18331,-.39860817E-3,-.4847E-4,0
STARLINK-5510,2023-021V,2026-06-14T14:48:16.407648,14.98331131,.00029879,69.9998,299.9249,270.4882,89.5935,0,U,55647,999,18331,.22342536E-4,.174E-5,0
STARLINK-5501,2023-021W,2026-06-14T15:30:21.425184,14.98343970,.00029769,69.9992,300.0279,260.4990,99.5833,0,U,55648,999,18331,.55607301E-4,.571E-5,0
STARLINK-5469,2023-021X,2026-06-14T13:24:09.728352,14.98330191,.00030354,69.9993,300.1230,268.9182,91.1629,0,U,55649,999,18330,-.3376016E-5,-.133E-5,0
STARLINK-5494,2023-021Y,2026-06-14T15:18:21.161952,14.98327932,.00026663,69.9991,299.9970,264.9484,95.1370,0,U,55650,999,18331,.33460994E-4,.306E-5,0
STARLINK-5506,2023-021Z,2026-06-14T15:42:22.296672,14.98330898,.00032133,69.9994,300.0573,268.8503,91.2288,0,U,55651,999,18331,.60042448E-4,.623E-5,0
STARLINK-5487,2023-021AA,2026-06-14T15:06:18.358560,14.98332987,.00031335,69.9995,299.9690,267.7982,92.2818,0,U,55652,999,18331,-.21585935E-4,-.351E-5,0
STARLINK-5067,2023-021AB,2026-06-14T13:06:07.672032,14.98332946,.00028497,69.9997,300.0788,270.9665,89.1168,0,U,55653,999,18330,.1094157E-5,-.8E-6,0
STARLINK-5070,2023-021AC,2026-06-14T16:00:24.270048,14.98331391,.00030587,69.9997,300.1028,269.3738,90.7071,0,U,55654,999,18331,.25729501E-4,.214E-5,0
STARLINK-5267,2023-021AD,2026-06-14T13:41:52.495008,14.98330832,.00031343,69.9993,280.2928,261.9416,98.1388,0,U,55655,999,18378,-.13634231E-3,-.1719E-4,0
STARLINK-5328,2023-021AF,2026-06-14T13:53:53.530656,14.98338173,.00029549,69.9999,280.3209,269.4310,90.6511,0,U,55657,999,18379,-.98390369E-4,-.1267E-4,0
STARLINK-5307,2023-021AG,2026-06-14T14:54:17.009280,14.98330994,.00031178,69.9997,299.9400,270.2213,89.8589,0,U,55658,999,18331,-.4838052E-5,-.151E-5,0
STARLINK-5477,2023-021AH,2026-06-14T13:47:52.916928,14.98330349,.00030904,69.9991,280.3053,268.8410,91.2395,0,U,55659,999,18378,-.4339184E-5,-.145E-5,0
STARLINK-5467,2023-021AJ,2026-06-14T14:11:51.628992,14.98347531,.00032018,69.9986,279.9686,270.3186,89.7606,0,U,55660,999,18380,.15084036E-3,.1708E-4,0
STARLINK-5475,2023-021AK,2026-06-14T11:47:42.246816,14.98331931,.00031223,69.9996,280.4174,270.5167,89.5634,0,U,55661,999,18378,.21718447E-4,.166E-5,0
STARLINK-5479,2023-021AL,2026-06-14T13:46:45.760800,14.97515513,.00030875,69.9992,280.3147,269.9168,90.1637,0,U,55662,999,18379,-.13721798E-3,-.1695E-4,0
STARLINK-5473,2023-021AM,2026-06-14T14:47:57.098976,14.98331837,.00030859,69.9995,280.0502,268.9670,91.1135,0,U,55663,999,18379,.7707166E-5,-.1E-7,0
STARLINK-5480,2023-021AN,2026-06-14T13:35:51.586656,14.98331855,.0003285,69.9996,280.2778,269.8500,90.2283,0,U,55664,999,18379,-.8728137E-5,-.197E-5,0
STARLINK-5474,2023-021AP,2026-06-14T14:41:56.296032,14.98322660,.00031129,69.9993,280.0364,271.9774,88.1028,0,U,55665,999,18379,.1220511E-3,.1363E-4,0
STARLINK-5456,2023-021AR,2026-06-14T14:23:54.341664,14.98326379,.00032387,69.9989,279.9918,269.3756,90.7032,0,U,55667,999,18379,.10145795E-3,.1118E-4,0
STARLINK-5455,2023-021AS,2026-06-14T13:29:50.964288,14.98330516,.00031166,69.9997,280.2631,270.0044,90.0758,0,U,55668,999,18378,-.27202536E-4,-.418E-5,0
